CCSDS_OMM_VERS = 2.0
CREATION_DATE  = 
ORIGINATOR     = 

OBJECT_NAME    = SL-3 R/B
OBJECT_ID      = 1982-079B
CENTER_NAME    = EARTH
REF_FRAME      = TEME
TIME_SYSTEM    = UTC
MEAN_ELEMENT_THEORY = SGP/SGP4

EPOCH          = 2026-01-07T19:35:55.758048
MEAN_MOTION    = 15.23959476
ECCENTRICITY   = .0025936
INCLINATION    = 81.1462
RA_OF_ASC_NODE = 264.9176
ARG_OF_PERICENTER = 14.7485
MEAN_ANOMALY   = 345.4498

EPHEMERIS_TYPE = 0
CLASSIFICATION_TYPE = U
NORAD_CAT_ID   = 13403
ELEMENT_SET_NO = 999
REV_AT_EPOCH   = 36842
BSTAR          = .20775E-3
MEAN_MOTION_DOT = .5098E-4
MEAN_MOTION_DDOT = 0

CCSDS_OMM_VERS = 2.0
CREATION_DATE  = 
ORIGINATOR     = 

OBJECT_NAME    = SL-14 R/B
OBJECT_ID      = 1982-092B
CENTER_NAME    = EARTH
REF_FRAME      = TEME
TIME_SYSTEM    = UTC
MEAN_ELEMENT_THEORY = SGP/SGP4

EPOCH          = 2026-01-07T18:54:13.760064
MEAN_MOTION    = 14.86586816
ECCENTRICITY   = .0021269
INCLINATION    = 82.5668
RA_OF_ASC_NODE = 198.3499
ARG_OF_PERICENTER = 140.1174
MEAN_ANOMALY   = 230.6141

EPHEMERIS_TYPE = 0
CLASSIFICATION_TYPE = U
NORAD_CAT_ID   = 13553
ELEMENT_SET_NO = 999
REV_AT_EPOCH   = 31988
BSTAR          = .65613E-4
MEAN_MOTION_DOT = .609E-5
MEAN_MOTION_DDOT = 0

CCSDS_OMM_VERS = 2.0
CREATION_DATE  = 
ORIGINATOR     = 

OBJECT_NAME    = SL-3 R/B
OBJECT_ID      = 1983-010B
CENTER_NAME    = EARTH
REF_FRAME      = TEME
TIME_SYSTEM    = UTC
MEAN_ELEMENT_THEORY = SGP/SGP4

EPOCH          = 2026-01-07T15:11:12.594624
MEAN_MOTION    = 15.44295515
ECCENTRICITY   = .0016192
INCLINATION    = 81.1034
RA_OF_ASC_NODE = 76.9949
ARG_OF_PERICENTER = 257.9835
MEAN_ANOMALY   = 101.9594

EPHEMERIS_TYPE = 0
CLASSIFICATION_TYPE = U
NORAD_CAT_ID   = 13819
ELEMENT_SET_NO = 999
REV_AT_EPOCH   = 34851
BSTAR          = .25644E-3
MEAN_MOTION_DOT = .11893E-3
MEAN_MOTION_DDOT = 0

CCSDS_OMM_VERS = 2.0
CREATION_DATE  = 
ORIGINATOR     = 

OBJECT_NAME    = SL-3 R/B
OBJECT_ID      = 1983-075B
CENTER_NAME    = EARTH
REF_FRAME      = TEME
TIME_SYSTEM    = UTC
MEAN_ELEMENT_THEORY = SGP/SGP4

EPOCH          = 2026-01-07T18:33:44.840160
MEAN_MOTION    = 15.36777477
ECCENTRICITY   = .002456
INCLINATION    = 97.6117
RA_OF_ASC_NODE = 10.1423
ARG_OF_PERICENTER = 87.8107
MEAN_ANOMALY   = 272.5949

EPHEMERIS_TYPE = 0
CLASSIFICATION_TYPE = U
NORAD_CAT_ID   = 14208
ELEMENT_SET_NO = 999
REV_AT_EPOCH   = 32079
BSTAR          = .27858E-3
MEAN_MOTION_DOT = .10026E-3
MEAN_MOTION_DDOT = 0

CCSDS_OMM_VERS = 2.0
CREATION_DATE  = 
ORIGINATOR     = 

OBJECT_NAME    = COSMOS 1536
OBJECT_ID      = 1984-013A
CENTER_NAME    = EARTH
REF_FRAME      = TEME
TIME_SYSTEM    = UTC
MEAN_ELEMENT_THEORY = SGP/SGP4

EPOCH          = 2026-01-07T19:54:36.124992
MEAN_MOTION    = 15.22922158
ECCENTRICITY   = .0015355
INCLINATION    = 82.5460
RA_OF_ASC_NODE = 168.2836
ARG_OF_PERICENTER = 133.5444
MEAN_ANOMALY   = 226.7071

EPHEMERIS_TYPE = 0
CLASSIFICATION_TYPE = U
NORAD_CAT_ID   = 14699
ELEMENT_SET_NO = 999
REV_AT_EPOCH   = 26335
BSTAR          = .27713E-3
MEAN_MOTION_DOT = .6553E-4
MEAN_MOTION_DDOT = 0

CCSDS_OMM_VERS = 2.0
CREATION_DATE  = 
ORIGINATOR     = 

OBJECT_NAME    = SL-14 R/B
OBJECT_ID      = 1984-027B
CENTER_NAME    = EARTH
REF_FRAME      = TEME
TIME_SYSTEM    = UTC
MEAN_ELEMENT_THEORY = SGP/SGP4

EPOCH          = 2026-01-07T19:38:57.257664
MEAN_MOTION    = 14.85908536
ECCENTRICITY   = .0018122
INCLINATION    = 82.5431
RA_OF_ASC_NODE = 302.1015
ARG_OF_PERICENTER = 170.0521
MEAN_ANOMALY   = 190.1057

EPHEMERIS_TYPE = 0
CLASSIFICATION_TYPE = U
NORAD_CAT_ID   = 14820
ELEMENT_SET_NO = 999
REV_AT_EPOCH   = 23859
BSTAR          = .68384E-4
MEAN_MOTION_DOT = .622E-5
MEAN_MOTION_DDOT = 0

CCSDS_OMM_VERS = 2.0
CREATION_DATE  = 
ORIGINATOR     = 

OBJECT_NAME    = SL-8 R/B
OBJECT_ID      = 1985-006B
CENTER_NAME    = EARTH
REF_FRAME      = TEME
TIME_SYSTEM    = UTC
MEAN_ELEMENT_THEORY = SGP/SGP4

EPOCH          = 2026-01-07T19:07:25.961664
MEAN_MOTION    = 14.37741382
ECCENTRICITY   = .0019677
INCLINATION    = 74.0459
RA_OF_ASC_NODE = 13.1907
ARG_OF_PERICENTER = 300.7685
MEAN_ANOMALY   = 232.9468

EPHEMERIS_TYPE = 0
CLASSIFICATION_TYPE = U
NORAD_CAT_ID   = 15483
ELEMENT_SET_NO = 999
REV_AT_EPOCH   = 14527
BSTAR          = .12002E-3
MEAN_MOTION_DOT = .335E-5
MEAN_MOTION_DDOT = 0

CCSDS_OMM_VERS = 2.0
CREATION_DATE  = 
ORIGINATOR     = 

OBJECT_NAME    = SL-12 R/B(2)
OBJECT_ID      = 1985-042D
CENTER_NAME    = EARTH
REF_FRAME      = TEME
TIME_SYSTEM    = UTC
MEAN_ELEMENT_THEORY = SGP/SGP4

EPOCH          = 2026-01-07T20:02:04.654176
MEAN_MOTION    = 14.21960487
ECCENTRICITY   = .0036779
INCLINATION    = 71.1066
RA_OF_ASC_NODE = 216.2924
ARG_OF_PERICENTER = 223.0680
MEAN_ANOMALY   = 147.3861

EPHEMERIS_TYPE = 0
CLASSIFICATION_TYPE = U
NORAD_CAT_ID   = 15772
ELEMENT_SET_NO = 999
REV_AT_EPOCH   = 10574
BSTAR          = .7311E-4
MEAN_MOTION_DOT = .115E-5
MEAN_MOTION_DDOT = 0

CCSDS_OMM_VERS = 2.0
CREATION_DATE  = 
ORIGINATOR     = 

OBJECT_NAME    = SL-14 R/B
OBJECT_ID      = 1985-069B
CENTER_NAME    = EARTH
REF_FRAME      = TEME
TIME_SYSTEM    = UTC
MEAN_ELEMENT_THEORY = SGP/SGP4

EPOCH          = 2026-01-07T16:29:48.947712
MEAN_MOTION    = 14.86358857
ECCENTRICITY   = .0019696
INCLINATION    = 82.5267
RA_OF_ASC_NODE = 82.3094
ARG_OF_PERICENTER = 38.3400
MEAN_ANOMALY   = 321.9212

EPHEMERIS_TYPE = 0
CLASSIFICATION_TYPE = U
NORAD_CAT_ID   = 15945
ELEMENT_SET_NO = 999
REV_AT_EPOCH   = 16377
BSTAR          = .62594E-4
MEAN_MOTION_DOT = .578E-5
MEAN_MOTION_DDOT = 0

CCSDS_OMM_VERS = 2.0
CREATION_DATE  = 
ORIGINATOR     = 

OBJECT_NAME    = SL-16 R/B
OBJECT_ID      = 1985-097B
CENTER_NAME    = EARTH
REF_FRAME      = TEME
TIME_SYSTEM    = UTC
MEAN_ELEMENT_THEORY = SGP/SGP4

EPOCH          = 2026-01-07T20:05:29.669280
MEAN_MOTION    = 14.16590096
ECCENTRICITY   = .000826
INCLINATION    = 71.0032
RA_OF_ASC_NODE = 268.6628
ARG_OF_PERICENTER = 333.3488
MEAN_ANOMALY   = 94.5580

EPHEMERIS_TYPE = 0
CLASSIFICATION_TYPE = U
NORAD_CAT_ID   = 16182
ELEMENT_SET_NO = 999
REV_AT_EPOCH   = 7861
BSTAR          = .17476E-3
MEAN_MOTION_DOT = .301E-5
MEAN_MOTION_DDOT = 0

CCSDS_OMM_VERS = 2.0
CREATION_DATE  = 
ORIGINATOR     = 

OBJECT_NAME    = SL-14 R/B
OBJECT_ID      = 1986-006B
CENTER_NAME    = EARTH
REF_FRAME      = TEME
TIME_SYSTEM    = UTC
MEAN_ELEMENT_THEORY = SGP/SGP4

EPOCH          = 2026-01-07T19:32:58.044480
MEAN_MOTION    = 14.86712401
ECCENTRICITY   = .0078119
INCLINATION    = 82.5285
RA_OF_ASC_NODE = 317.0180
ARG_OF_PERICENTER = 114.0059
MEAN_ANOMALY   = 246.9361

EPHEMERIS_TYPE = 0
CLASSIFICATION_TYPE = U
NORAD_CAT_ID   = 16496
ELEMENT_SET_NO = 999
REV_AT_EPOCH   = 14016
BSTAR          = .81348E-4
MEAN_MOTION_DOT = .793E-5
MEAN_MOTION_DDOT = 0

CCSDS_OMM_VERS = 2.0
CREATION_DATE  = 
ORIGINATOR     = 

OBJECT_NAME    = COSMOS 1743
OBJECT_ID      = 1986-034A
CENTER_NAME    = EARTH
REF_FRAME      = TEME
TIME_SYSTEM    = UTC
MEAN_ELEMENT_THEORY = SGP/SGP4

EPOCH          = 2026-01-07T19:33:41.359392
MEAN_MOTION    = 15.53967425
ECCENTRICITY   = .0005157
INCLINATION    = 82.5364
RA_OF_ASC_NODE = 137.4753
ARG_OF_PERICENTER = 151.5109
MEAN_ANOMALY   = 208.6427

EPHEMERIS_TYPE = 0
CLASSIFICATION_TYPE = U
NORAD_CAT_ID   = 16719
ELEMENT_SET_NO = 999
REV_AT_EPOCH   = 17078
BSTAR          = .44708E-3
MEAN_MOTION_DOT = .28968E-3
MEAN_MOTION_DDOT = 0

