SL-3 R/B                
1 13403U 82079B   26007.81661757  .00005098  00000+0  20775-3 0  9998
2 13403  81.1462 264.9176 0025936  14.7485 345.4498 15.23959476368425
SL-14 R/B               
1 13553U 82092B   26007.78765926  .00000609  00000+0  65613-4 0  9992
2 13553  82.5668 198.3499 0021269 140.1174 230.6141 14.86586816319884
SL-3 R/B                
1 13819U 83010B   26007.63278466  .00011893  00000+0  25644-3 0  9996
2 13819  81.1034  76.9949 0016192 257.9835 101.9594 15.44295515348514
SL-3 R/B                
1 14208U 83075B   26007.77343565  .00010026  00000+0  27858-3 0  9994
2 14208  97.6117  10.1423 0024560  87.8107 272.5949 15.36777477320790
COSMOS 1536             
1 14699U 84013A   26007.82958478  .00006553  00000+0  27713-3 0  9992
2 14699  82.5460 168.2836 0015355 133.5444 226.7071 15.22922158263354
SL-14 R/B               
1 14820U 84027B   26007.81871826  .00000622  00000+0  68384-4 0  9994
2 14820  82.5431 302.1015 0018122 170.0521 190.1057 14.85908536238591
SL-8 R/B                
1 15483U 85006B   26007.79682826  .00000335  00000+0  12002-3 0  9991
2 15483  74.0459  13.1907 0019677 300.7685 232.9468 14.37741382145275
SL-12 R/B(2)            
1 15772U 85042D   26007.83477609  .00000115  00000+0  73110-4 0  9992
2 15772  71.1066 216.2924 0036779 223.0680 147.3861 14.21960487105743
SL-14 R/B               
1 15945U 85069B   26007.68737208  .00000578  00000+0  62594-4 0  9997
2 15945  82.5267  82.3094 0019696  38.3400 321.9212 14.86358857163770
SL-16 R/B               
1 16182U 85097B   26007.83714895  .00000301  00000+0  17476-3 0  9998
2 16182  71.0032 268.6628 0008260 333.3488  94.5580 14.16590096 78613
SL-14 R/B               
1 16496U 86006B   26007.81456070  .00000793  00000+0  81348-4 0  9998
2 16496  82.5285 317.0180 0078119 114.0059 246.9361 14.86712401140161
COSMOS 1743             
1 16719U 86034A   26007.81506203  .00028968  00000+0  44708-3 0  9993
2 16719  82.5364 137.4753 0005157 151.5109 208.6427 15.53967425170783
